TIANMU-1 07             
1 57399U 23101A   26065.57454230  .00008352  00000+0  29795-3 0  9991
2 57399  97.2728 118.5929 0004609 142.4105 217.7458 15.29118809145964
STARLINK-32734          
1 62476U 24254Q   26068.24736274  .00038972  00000+0  14177-2 0  9999
2 62476  43.0040  19.0143 0001594 252.3822 107.6856 15.27593191 67581
